start=new Date('2023-02-24T00:00:00.000Z').valueOf();
sats=[{"BSTAR":"0.00004850100000","OBJECT_TYPE":"PAYLOAD","FILE":"3828580","MEAN_MOTION":"14.98330577","LAUNCH_DATE":"2021-09-14","RA_OF_ASC_NODE":"213.4473","REF_FRAME":"TEME","TLE_LINE1":"1 49132U 21082C   23054.57492973  .00000486  00000-0  48501-4 0  9992","GP_ID":"226540165","INCLINATION":"69.9992","EPOCH":"2023-02-23T13:47:53.928672","MEAN_ELEMENT_THEORY":"SGP4","MEAN_MOTION_DDOT":"0.0000000000000","MEAN_ANOMALY":"93.3269","PERIAPSIS":"569.845","TIME_SYSTEM":"UTC","RCS_SIZE":"LARGE","APOAPSIS":"574.267","COUNTRY_CODE":"US","ARG_OF_PERICENTER":"266.7526","ECCENTRICITY":"0.00031810","REV_AT_EPOCH":"7969","OBJECT_ID":"2021-082C","EPHEMERIS_TYPE":"0","TLE_LINE2":"2 49132  69.9992 213.4473 0003181 266.7526  93.3269 14.98330577 79696","CLASSIFICATION_TYPE":"U","CENTER_NAME":"EARTH","SITE":"AFWTR","ELEMENT_SET_NO":"999","PERIOD":"96.107","DECAY_DATE":null,"MEAN_MOTION_DOT":"0.00000486","SEMIMAJOR_AXIS":"6950.191","OBJECT_NAME":"STARLINK-3090","NORAD_CAT_ID":"49132"},{"TLE_LINE2":"2 49133  70.0005 213.4538 0003134 268.3985  91.6815 14.98332258 79698","CLASSIFICATION_TYPE":"U","EPHEMERIS_TYPE":"0","REV_AT_EPOCH":"7969","OBJECT_ID":"2021-082D","ECCENTRICITY":"0.00031340","ARG_OF_PERICENTER":"268.3985","PERIOD":"96.107","ELEMENT_SET_NO":"999","SITE":"AFWTR","CENTER_NAME":"EARTH","MEAN_MOTION_DOT":"0.00000306","DECAY_DATE":null,"OBJECT_NAME":"STARLINK-3077","NORAD_CAT_ID":"49133","SEMIMAJOR_AXIS":"6950.186","LAUNCH_DATE":"2021-09-14","FILE":"3828580","MEAN_MOTION":"14.98332258","BSTAR":"0.00003346200000","OBJECT_TYPE":"PAYLOAD","EPOCH":"2023-02-23T13:41:01.849920","TLE_LINE1":"1 49133U 21082D   23054.57016030  .00000306  00000-0  33462-4 0  9990","REF_FRAME":"TEME","GP_ID":"226540161","INCLINATION":"70.0005","RA_OF_ASC_NODE":"213.4538","PERIAPSIS":"569.873","MEAN_ANOMALY":"91.6815","MEAN_ELEMENT_THEORY":"SGP4","MEAN_MOTION_DDOT":"0.0000000000000","COUNTRY_CODE":"US","RCS_SIZE":"LARGE","APOAPSIS":"574.229","TIME_SYSTEM":"UTC"},{"OBJECT_TYPE":"PAYLOAD","BSTAR":"0.00001065900000","MEAN_MOTION":"14.98334317","FILE":"3828582","LAUNCH_DATE":"2021-09-14","RA_OF_ASC_NODE":"213.4733","INCLINATION":"69.9985","GP_ID":"226540207","TLE_LINE1":"1 49134U 21082E   23054.56539292  .00000034  00000-0  10659-4 0  9991","REF_FRAME":"TEME","EPOCH":"2023-02-23T13:34:09.948288","MEAN_MOTION_DDOT":"0.0000000000000","MEAN_ELEMENT_THEORY":"SGP4","MEAN_ANOMALY":"91.4553","PERIAPSIS":"569.902","TIME_SYSTEM":"UTC","RCS_SIZE":"LARGE","APOAPSIS":"574.187","COUNTRY_CODE":"US","ARG_OF_PERICENTER":"268.6253","ECCENTRICITY":"0.00030820","OBJECT_ID":"2021-082E","REV_AT_EPOCH":"8089","EPHEMERIS_TYPE":"0","TLE_LINE2":"2 49134  69.9985 213.4733 0003082 268.6253  91.4553 14.98334317 80892","CLASSIFICATION_TYPE":"U","CENTER_NAME":"EARTH","ELEMENT_SET_NO":"999","SITE":"AFWTR","PERIOD":"96.107","DECAY_DATE":null,"MEAN_MOTION_DOT":"0.00000034","SEMIMAJOR_AXIS":"6950.180","NORAD_CAT_ID":"49134","OBJECT_NAME":"STARLINK-3078"},{"SEMIMAJOR_AXIS":"6950.167","OBJECT_NAME":"STARLINK-3073","NORAD_CAT_ID":"49135","DECAY_DATE":null,"MEAN_MOTION_DOT":"0.00000382","CENTER_NAME":"EARTH","ELEMENT_SET_NO":"999","SITE":"AFWTR","PERIOD":"96.106","ARG_OF_PERICENTER":"271.0935","ECCENTRICITY":"0.00029510","REV_AT_EPOCH":"8071","OBJECT_ID":"2021-082F","CLASSIFICATION_TYPE":"U","TLE_LINE2":"2 49135  69.9987 173.0363 0002951 271.0935  88.9886 14.98338337 80711","EPHEMERIS_TYPE":"0","TIME_SYSTEM":"UTC","RCS_SIZE":"LARGE","APOAPSIS":"574.083","COUNTRY_CODE":"US","MEAN_ELEMENT_THEORY":"SGP4","MEAN_MOTION_DDOT":"0.0000000000000","MEAN_ANOMALY":"88.9886","PERIAPSIS":"569.981","RA_OF_ASC_NODE":"173.0363","TLE_LINE1":"1 49135U 21082F   23054.73970522  .00000382  00000-0  39761-4 0  9997","REF_FRAME":"TEME","INCLINATION":"69.9987","GP_ID":"226600250","EPOCH":"2023-02-23T17:45:10.531008","BSTAR":"0.00003976100000","OBJECT_TYPE":"PAYLOAD","FILE":"3830195","MEAN_MOTION":"14.98338337","LAUNCH_DATE":"2021-09-14"},{"PERIOD":"96.107","SITE":"AFWTR","ELEMENT_SET_NO":"999","CENTER_NAME":"EARTH","EPHEMERIS_TYPE":"0","TLE_LINE2":"2 49136  70.0015 193.7181 0003244 268.7595  91.3192 14.98328701 80188","CLASSIFICATION_TYPE":"U","REV_AT_EPOCH":"8018","OBJECT_ID":"2021-082G","ECCENTRICITY":"0.00032440","ARG_OF_PERICENTER":"268.7595","NORAD_CAT_ID":"49136","OBJECT_NAME":"STARLINK-3084","SEMIMAJOR_AXIS":"6950.197","MEAN_MOTION_DOT":"0.00000117","DECAY_DATE":null,"EPOCH":"2023-02-23T11:11:52.429056","GP_ID":"226566309","INCLINATION":"70.0015","REF_FRAME":"TEME","TLE_LINE1":"1 49136U 21082G   23054.46657904  .00000117  00000-0  17610-4 0  9999","RA_OF_ASC_NODE":"193.7181","LAUNCH_DATE":"2021-09-14","FILE":"3828819","MEAN_MOTION":"14.98328701","BSTAR":"0.00001761000000","OBJECT_TYPE":"PAYLOAD","COUNTRY_CODE":"US","RCS_SIZE":"LARGE","APOAPSIS":"574.317","TIME_SYSTEM":"UTC","PERIAPSIS":"569.807","MEAN_ANOMALY":"91.3192","MEAN_MOTION_DDOT":"0.0000000000000","MEAN_ELEMENT_THEORY":"SGP4"},{"FILE":"3828819","MEAN_MOTION":"14.98328930","OBJECT_TYPE":"PAYLOAD","BSTAR":"-0.00002797900000","LAUNCH_DATE":"2021-09-14","RA_OF_ASC_NODE":"193.5677","EPOCH":"2023-02-23T12:41:08.527488","GP_ID":"226566559","INCLINATION":"69.9990","TLE_LINE1":"1 49137U 21082H   23054.52857092 -.00000427  00000-0 -27979-4 0  9992","REF_FRAME":"TEME","MEAN_ANOMALY":"92.2625","MEAN_MOTION_DDOT":"0.0000000000000","MEAN_ELEMENT_THEORY":"SGP4","PERIAPSIS":"569.987","APOAPSIS":"574.136","RCS_SIZE":"LARGE","TIME_SYSTEM":"UTC","COUNTRY_CODE":"US","ECCENTRICITY":"0.00029850","ARG_OF_PERICENTER":"267.8193","TLE_LINE2":"2 49137  69.9990 193.5677 0002985 267.8193  92.2625 14.98328930 80186","EPHEMERIS_TYPE":"0","CLASSIFICATION_TYPE":"U","OBJECT_ID":"2021-082H","REV_AT_EPOCH":"8018","ELEMENT_SET_NO":"999","SITE":"AFWTR","CENTER_NAME":"EARTH","PERIOD":"96.107","DECAY_DATE":null,"MEAN_MOTION_DOT":"-0.00000427","SEMIMAJOR_AXIS":"6950.196","NORAD_CAT_ID":"49137","OBJECT_NAME":"STARLINK-3055"},{"OBJECT_TYPE":"PAYLOAD","BSTAR":"-0.00002269800000","FILE":"3828582","MEAN_MOTION":"14.98334998","LAUNCH_DATE":"2021-09-14","RA_OF_ASC_NODE":"213.4829","INCLINATION":"70.0005","GP_ID":"226540402","TLE_LINE1":"1 49138U 21082J   23054.56062270 -.00000364  00000-0 -22698-4 0  9996","REF_FRAME":"TEME","EPOCH":"2023-02-23T13:27:17.801280","MEAN_MOTION_DDOT":"0.0000000000000","MEAN_ELEMENT_THEORY":"SGP4","MEAN_ANOMALY":"91.2618","PERIAPSIS":"570.084","TIME_SYSTEM":"UTC","RCS_SIZE":"LARGE","APOAPSIS":"574.001","COUNTRY_CODE":"US","ARG_OF_PERICENTER":"268.8219","ECCENTRICITY":"0.00028180","REV_AT_EPOCH":"7969","OBJECT_ID":"2021-082J","EPHEMERIS_TYPE":"0","TLE_LINE2":"2 49138  70.0005 213.4829 0002818 268.8219  91.2618 14.98334998 79699","CLASSIFICATION_TYPE":"U","CENTER_NAME":"EARTH","ELEMENT_SET_NO":"999","SITE":"AFWTR","PERIOD":"96.107","DECAY_DATE":null,"MEAN_MOTION_DOT":"-0.00000364","SEMIMAJOR_AXIS":"6950.177","NORAD_CAT_ID":"49138","OBJECT_NAME":"STARLINK-3058"},{"EPOCH":"2023-02-23T12:43:02.982432","TLE_LINE1":"1 49139U 21082K   23054.52989563 -.00000317  00000-0 -18759-4 0  9997","REF_FRAME":"TEME","GP_ID":"226540404","INCLINATION":"69.9987","RA_OF_ASC_NODE":"173.5656","LAUNCH_DATE":"2021-09-14","MEAN_MOTION":"14.98328869","FILE":"3828582","BSTAR":"-0.00001875900000","OBJECT_TYPE":"PAYLOAD","COUNTRY_CODE":"US","RCS_SIZE":"LARGE","APOAPSIS":"574.128","TIME_SYSTEM":"UTC","PERIAPSIS":"569.995","MEAN_ANOMALY":"94.8828","MEAN_ELEMENT_THEORY":"SGP4","MEAN_MOTION_DDOT":"0.0000000000000","PERIOD":"96.107","SITE":"AFWTR","ELEMENT_SET_NO":"999","CENTER_NAME":"EARTH","CLASSIFICATION_TYPE":"U","TLE_LINE2":"2 49139  69.9987 173.5656 0002973 265.1992  94.8828 14.98328869 80672","EPHEMERIS_TYPE":"0","OBJECT_ID":"2021-082K","REV_AT_EPOCH":"8067","ECCENTRICITY":"0.00029730","ARG_OF_PERICENTER":"265.1992","OBJECT_NAME":"STARLINK-3057","NORAD_CAT_ID":"49139","SEMIMAJOR_AXIS":"6950.196","MEAN_MOTION_DOT":"-0.00000317","DECAY_DATE":null},{"FILE":"3828819","MEAN_MOTION":"14.98334010","BSTAR":"-0.00008158600000","OBJECT_TYPE":"PAYLOAD","LAUNCH_DATE":"2021-09-14","RA_OF_ASC_NODE":"173.5918","EPOCH":"2023-02-23T12:29:18.743712","TLE_LINE1":"1 49140U 21082L   23054.52035583 -.00001067  00000-0 -81586-4 0  9994","REF_FRAME":"TEME","INCLINATION":"69.9988","GP_ID":"226565810","MEAN_ANOMALY":"92.2057","MEAN_ELEMENT_THEORY":"SGP4","MEAN_MOTION_DDOT":"0.0000000000000","PERIAPSIS":"569.713","APOAPSIS":"574.378","RCS_SIZE":"LARGE","TIME_SYSTEM":"UTC","COUNTRY_CODE":"US","ECCENTRICITY":"0.00033560","ARG_OF_PERICENTER":"267.8718","TLE_LINE2":"2 49140  69.9988 173.5918 0003356 267.8718  92.2057 14.98334010 80678","EPHEMERIS_TYPE":"0","CLASSIFICATION_TYPE":"U","REV_AT_EPOCH":"8067","OBJECT_ID":"2021-082L","ELEMENT_SET_NO":"999","SITE":"AFWTR","CENTER_NAME":"EARTH","PERIOD":"96.107","DECAY_DATE":null,"MEAN_MOTION_DOT":"-0.00001067","SEMIMAJOR_AXIS":"6950.180","OBJECT_NAME":"STARLINK-3118","NORAD_CAT_ID":"49140"},{"LAUNCH_DATE":"2021-09-14","MEAN_MOTION":"14.98331744","FILE":"3828582","BSTAR":"0.00000852970000","OBJECT_TYPE":"PAYLOAD","EPOCH":"2023-02-23T16:32:41.985312","TLE_LINE1":"1 49141U 21082M   23054.68937483  .00000009  00000-0  85297-5 0  9999","REF_FRAME":"TEME","INCLINATION":"69.9991","GP_ID":"226540212","RA_OF_ASC_NODE":"213.1588","PERIAPSIS":"569.919","MEAN_ANOMALY":"90.2623","MEAN_ELEMENT_THEORY":"SGP4","MEAN_MOTION_DDOT":"0.0000000000000","COUNTRY_CODE":"US","RCS_SIZE":"LARGE","APOAPSIS":"574.186","TIME_SYSTEM":"UTC","EPHEMERIS_TYPE":"0","TLE_LINE2":"2 49141  69.9991 213.1588 0003069 269.8184  90.2623 14.98331744 80912","CLASSIFICATION_TYPE":"U","OBJECT_ID":"2021-082M","REV_AT_EPOCH":"8091","ECCENTRICITY":"0.00030690","ARG_OF_PERICENTER":"269.8184","PERIOD":"96.107","SITE":"AFWTR","ELEMENT_SET_NO":"999","CENTER_NAME":"EARTH","MEAN_MOTION_DOT":"0.00000009","DECAY_DATE":null,"OBJECT_NAME":"STARLINK-3093","NORAD_CAT_ID":"49141","SEMIMAJOR_AXIS":"6950.187"}];
